{"fetched_at":"2026-07-07T18:29:23.662Z","source":"https://celestrak.org/NORAD/elements/gp.php?NAME=EROS&FORMAT=JSON","constellation":"eros","records":[{"OBJECT_NAME":"EROS C3","OBJECT_ID":"2022-179A","EPOCH":"2026-07-07T12:19:24.301344","CLASSIFICATION_TYPE":"U","MEAN_MOTION":15.10988652,"ECCENTRICITY":0.000613,"INCLINATION":139.3345,"RA_OF_ASC_NODE":121.0148,"ARG_OF_PERICENTER":120.7685,"MEAN_ANOMALY":239.3727,"EPHEMERIS_TYPE":0,"NORAD_CAT_ID":54880,"ELEMENT_SET_NO":999,"REV_AT_EPOCH":19540,"BSTAR":0.00017661,"MEAN_MOTION_DOT":0.00003245,"MEAN_MOTION_DDOT":0}]}
