EROS C3                 
1 54880U 22179A   26188.51347571  .00003245  00000+0  17661-3 0  9991
2 54880 139.3345 121.0148 0006130 120.7685 239.3727 15.10988652195408
